IDEFIX & ARIANE 42P R/B 
1 27422U 02021B   26058.84688091  .00000268  00000+0  11860-3 0  9991
2 27422  98.5859 357.5714 0011033 212.3468 147.7040 14.31017833242618
AQUA                    
1 27424U 02022A   26059.17669843  .00001110  00000+0  23151-3 0  9998
2 27424  98.4156  26.3697 0000777  51.7948  38.3737 14.61949239267343
CZ-4B R/B               
1 27432U 02024C   26059.17085911  .00000044  00000+0  45606-4 0  9992
2 27432  98.8861 112.6246 0050898  50.9637  14.7089 14.14545768227894
MIDORI II (ADEOS-II)    
1 27597U 02056A   26058.86300128  .00000290  00000+0  13172-3 0  9999
2 27597  98.7750  17.2739 0001915  56.9728 303.1637 14.29276149208895
H-2A R/B                
1 27601U 02056E   26058.86609037  .00000272  00000+0  10985-3 0  9995
2 27601  98.3183  19.6068 0069881 189.9328 224.7028 14.33752988212709
CZ-4B R/B               
1 28059U 03049C   26058.96229859  .00000452  00000+0  11535-3 0  9999
2 28059  98.6869  53.4863 0046998 261.2594  98.3277 14.55008725185182
CZ-2C R/B               
1 28222U 04012C   26059.13914051  .00054305  00000+0  58875-3 0  9991
2 28222  97.7260 123.5351 0013628 348.4673  11.6270 15.63261075202786
SL-16 R/B               
1 28353U 04021B   26058.98154134  .00000000  00000+0  24562-4 0  9996
2 28353  70.9990 252.8671 0003535  30.7115 329.4214 14.14599717121468
CZ-4B R/B               
1 28415U 04035C   26059.09236413  .00009132  00000+0  32327-3 0  9996
2 28415  97.3516  93.4510 0032193   6.1781 353.9849 15.28860303178447
CZ-2C R/B               
1 28480U 04046B   26058.38842994  .00000123  00000+0  60987-4 0  9993
2 28480  98.1988 334.0129 0139253 184.8443 175.1401 14.26988213107038
ARIANE 5 R/B            
1 28499U 04049H   26059.06631600  .00000826  00000+0  97363-4 0  9990
2 28499  98.2611 227.1642 0084633  23.0906 337.4076 14.85244652144368
CZ-2D R/B               
1 28738U 05024B   26059.02127237  .00042508  00000+0  54204-3 0  9991
2 28738  97.3609  73.8203 0007133  70.0393 290.1631 15.59163982138275
