CCSDS_OMM_VERS = 2.0
CREATION_DATE  = 
ORIGINATOR     = 

OBJECT_NAME    = IDEFIX & ARIANE 42P R/B
OBJECT_ID      = 2002-021B
CENTER_NAME    = EARTH
REF_FRAME      = TEME
TIME_SYSTEM    = UTC
MEAN_ELEMENT_THEORY = SGP/SGP4

EPOCH          = 2026-02-27T20:19:30.510624
MEAN_MOTION    = 14.31017833
ECCENTRICITY   = .00110338
INCLINATION    = 98.5859
RA_OF_ASC_NODE = 357.5714
ARG_OF_PERICENTER = 212.3468
MEAN_ANOMALY   = 147.7040

EPHEMERIS_TYPE = 0
CLASSIFICATION_TYPE = U
NORAD_CAT_ID   = 27422
ELEMENT_SET_NO = 999
REV_AT_EPOCH   = 24261
BSTAR          = .11860068E-3
MEAN_MOTION_DOT = .268E-5
MEAN_MOTION_DDOT = 0

CCSDS_OMM_VERS = 2.0
CREATION_DATE  = 
ORIGINATOR     = 

OBJECT_NAME    = AQUA
OBJECT_ID      = 2002-022A
CENTER_NAME    = EARTH
REF_FRAME      = TEME
TIME_SYSTEM    = UTC
MEAN_ELEMENT_THEORY = SGP/SGP4

EPOCH          = 2026-02-28T04:14:26.744352
MEAN_MOTION    = 14.61949239
ECCENTRICITY   = .0000777
INCLINATION    = 98.4156
RA_OF_ASC_NODE = 26.3697
ARG_OF_PERICENTER = 51.7948
MEAN_ANOMALY   = 38.3737

EPHEMERIS_TYPE = 0
CLASSIFICATION_TYPE = U
NORAD_CAT_ID   = 27424
ELEMENT_SET_NO = 999
REV_AT_EPOCH   = 26734
BSTAR          = .23151E-3
MEAN_MOTION_DOT = .111E-4
MEAN_MOTION_DDOT = 0

CCSDS_OMM_VERS = 2.0
CREATION_DATE  = 
ORIGINATOR     = 

OBJECT_NAME    = CZ-4B R/B
OBJECT_ID      = 2002-024C
CENTER_NAME    = EARTH
REF_FRAME      = TEME
TIME_SYSTEM    = UTC
MEAN_ELEMENT_THEORY = SGP/SGP4

EPOCH          = 2026-02-28T04:06:02.227104
MEAN_MOTION    = 14.14545768
ECCENTRICITY   = .0050898
INCLINATION    = 98.8861
RA_OF_ASC_NODE = 112.6246
ARG_OF_PERICENTER = 50.9637
MEAN_ANOMALY   = 14.7089

EPHEMERIS_TYPE = 0
CLASSIFICATION_TYPE = U
NORAD_CAT_ID   = 27432
ELEMENT_SET_NO = 999
REV_AT_EPOCH   = 22789
BSTAR          = .45606E-4
MEAN_MOTION_DOT = .44E-6
MEAN_MOTION_DDOT = 0

CCSDS_OMM_VERS = 2.0
CREATION_DATE  = 
ORIGINATOR     = 

OBJECT_NAME    = MIDORI II (ADEOS-II)
OBJECT_ID      = 2002-056A
CENTER_NAME    = EARTH
REF_FRAME      = TEME
TIME_SYSTEM    = UTC
MEAN_ELEMENT_THEORY = SGP/SGP4

EPOCH          = 2026-02-27T20:42:43.310592
MEAN_MOTION    = 14.29276149
ECCENTRICITY   = .0001915
INCLINATION    = 98.7750
RA_OF_ASC_NODE = 17.2739
ARG_OF_PERICENTER = 56.9728
MEAN_ANOMALY   = 303.1637

EPHEMERIS_TYPE = 0
CLASSIFICATION_TYPE = U
NORAD_CAT_ID   = 27597
ELEMENT_SET_NO = 999
REV_AT_EPOCH   = 20889
BSTAR          = .13172E-3
MEAN_MOTION_DOT = .29E-5
MEAN_MOTION_DDOT = 0

CCSDS_OMM_VERS = 2.0
CREATION_DATE  = 
ORIGINATOR     = 

OBJECT_NAME    = H-2A R/B
OBJECT_ID      = 2002-056E
CENTER_NAME    = EARTH
REF_FRAME      = TEME
TIME_SYSTEM    = UTC
MEAN_ELEMENT_THEORY = SGP/SGP4

EPOCH          = 2026-02-27T20:47:10.207968
MEAN_MOTION    = 14.33752988
ECCENTRICITY   = .0069881
INCLINATION    = 98.3183
RA_OF_ASC_NODE = 19.6068
ARG_OF_PERICENTER = 189.9328
MEAN_ANOMALY   = 224.7028

EPHEMERIS_TYPE = 0
CLASSIFICATION_TYPE = U
NORAD_CAT_ID   = 27601
ELEMENT_SET_NO = 999
REV_AT_EPOCH   = 21270
BSTAR          = .10984685E-3
MEAN_MOTION_DOT = .272E-5
MEAN_MOTION_DDOT = 0

CCSDS_OMM_VERS = 2.0
CREATION_DATE  = 
ORIGINATOR     = 

OBJECT_NAME    = CZ-4B R/B
OBJECT_ID      = 2003-049C
CENTER_NAME    = EARTH
REF_FRAME      = TEME
TIME_SYSTEM    = UTC
MEAN_ELEMENT_THEORY = SGP/SGP4

EPOCH          = 2026-02-27T23:05:42.598176
MEAN_MOTION    = 14.55008725
ECCENTRICITY   = .0046998
INCLINATION    = 98.6869
RA_OF_ASC_NODE = 53.4863
ARG_OF_PERICENTER = 261.2594
MEAN_ANOMALY   = 98.3277

EPHEMERIS_TYPE = 0
CLASSIFICATION_TYPE = U
NORAD_CAT_ID   = 28059
ELEMENT_SET_NO = 999
REV_AT_EPOCH   = 18518
BSTAR          = .11535E-3
MEAN_MOTION_DOT = .452E-5
MEAN_MOTION_DDOT = 0

CCSDS_OMM_VERS = 2.0
CREATION_DATE  = 
ORIGINATOR     = 

OBJECT_NAME    = CZ-2C R/B
OBJECT_ID      = 2004-012C
CENTER_NAME    = EARTH
REF_FRAME      = TEME
TIME_SYSTEM    = UTC
MEAN_ELEMENT_THEORY = SGP/SGP4

EPOCH          = 2026-02-28T03:20:21.740064
MEAN_MOTION    = 15.63261075
ECCENTRICITY   = .0013628
INCLINATION    = 97.7260
RA_OF_ASC_NODE = 123.5351
ARG_OF_PERICENTER = 348.4673
MEAN_ANOMALY   = 11.6270

EPHEMERIS_TYPE = 0
CLASSIFICATION_TYPE = U
NORAD_CAT_ID   = 28222
ELEMENT_SET_NO = 999
REV_AT_EPOCH   = 20278
BSTAR          = .58875E-3
MEAN_MOTION_DOT = .54305E-3
MEAN_MOTION_DDOT = 0

CCSDS_OMM_VERS = 2.0
CREATION_DATE  = 
ORIGINATOR     = 

OBJECT_NAME    = SL-16 R/B
OBJECT_ID      = 2004-021B
CENTER_NAME    = EARTH
REF_FRAME      = TEME
TIME_SYSTEM    = UTC
MEAN_ELEMENT_THEORY = SGP/SGP4

EPOCH          = 2026-02-27T23:33:25.171776
MEAN_MOTION    = 14.14599717
ECCENTRICITY   = .0003535
INCLINATION    = 70.9990
RA_OF_ASC_NODE = 252.8671
ARG_OF_PERICENTER = 30.7115
MEAN_ANOMALY   = 329.4214

EPHEMERIS_TYPE = 0
CLASSIFICATION_TYPE = U
NORAD_CAT_ID   = 28353
ELEMENT_SET_NO = 999
REV_AT_EPOCH   = 12146
BSTAR          = .24562E-4
MEAN_MOTION_DOT = 0
MEAN_MOTION_DDOT = 0

CCSDS_OMM_VERS = 2.0
CREATION_DATE  = 
ORIGINATOR     = 

OBJECT_NAME    = CZ-4B R/B
OBJECT_ID      = 2004-035C
CENTER_NAME    = EARTH
REF_FRAME      = TEME
TIME_SYSTEM    = UTC
MEAN_ELEMENT_THEORY = SGP/SGP4

EPOCH          = 2026-02-28T02:13:00.260832
MEAN_MOTION    = 15.28860303
ECCENTRICITY   = .0032193
INCLINATION    = 97.3516
RA_OF_ASC_NODE = 93.4510
ARG_OF_PERICENTER = 6.1781
MEAN_ANOMALY   = 353.9849

EPHEMERIS_TYPE = 0
CLASSIFICATION_TYPE = U
NORAD_CAT_ID   = 28415
ELEMENT_SET_NO = 999
REV_AT_EPOCH   = 17844
BSTAR          = .32327E-3
MEAN_MOTION_DOT = .9132E-4
MEAN_MOTION_DDOT = 0

CCSDS_OMM_VERS = 2.0
CREATION_DATE  = 
ORIGINATOR     = 

OBJECT_NAME    = CZ-2C R/B
OBJECT_ID      = 2004-046B
CENTER_NAME    = EARTH
REF_FRAME      = TEME
TIME_SYSTEM    = UTC
MEAN_ELEMENT_THEORY = SGP/SGP4

EPOCH          = 2026-02-27T09:19:20.346816
MEAN_MOTION    = 14.26988213
ECCENTRICITY   = .01392534
INCLINATION    = 98.1988
RA_OF_ASC_NODE = 334.0129
ARG_OF_PERICENTER = 184.8443
MEAN_ANOMALY   = 175.1401

EPHEMERIS_TYPE = 0
CLASSIFICATION_TYPE = U
NORAD_CAT_ID   = 28480
ELEMENT_SET_NO = 999
REV_AT_EPOCH   = 10703
BSTAR          = .60987235E-4
MEAN_MOTION_DOT = .123E-5
MEAN_MOTION_DDOT = 0

CCSDS_OMM_VERS = 2.0
CREATION_DATE  = 
ORIGINATOR     = 

OBJECT_NAME    = ARIANE 5 R/B
OBJECT_ID      = 2004-049H
CENTER_NAME    = EARTH
REF_FRAME      = TEME
TIME_SYSTEM    = UTC
MEAN_ELEMENT_THEORY = SGP/SGP4

EPOCH          = 2026-02-28T01:35:29.702400
MEAN_MOTION    = 14.85244652
ECCENTRICITY   = .0084633
INCLINATION    = 98.2611
RA_OF_ASC_NODE = 227.1642
ARG_OF_PERICENTER = 23.0906
MEAN_ANOMALY   = 337.4076

EPHEMERIS_TYPE = 0
CLASSIFICATION_TYPE = U
NORAD_CAT_ID   = 28499
ELEMENT_SET_NO = 999
REV_AT_EPOCH   = 14436
BSTAR          = .97363E-4
MEAN_MOTION_DOT = .826E-5
MEAN_MOTION_DDOT = 0

CCSDS_OMM_VERS = 2.0
CREATION_DATE  = 
ORIGINATOR     = 

OBJECT_NAME    = CZ-2D R/B
OBJECT_ID      = 2005-024B
CENTER_NAME    = EARTH
REF_FRAME      = TEME
TIME_SYSTEM    = UTC
MEAN_ELEMENT_THEORY = SGP/SGP4

EPOCH          = 2026-02-28T00:30:37.932768
MEAN_MOTION    = 15.59163982
ECCENTRICITY   = .0007133
INCLINATION    = 97.3609
RA_OF_ASC_NODE = 73.8203
ARG_OF_PERICENTER = 70.0393
MEAN_ANOMALY   = 290.1631

EPHEMERIS_TYPE = 0
CLASSIFICATION_TYPE = U
NORAD_CAT_ID   = 28738
ELEMENT_SET_NO = 999
REV_AT_EPOCH   = 13827
BSTAR          = .54204E-3
MEAN_MOTION_DOT = .42508E-3
MEAN_MOTION_DDOT = 0

